{
  "links" : {
    "next" : "https://api.nasa.gov/neo/rest/v1/feed?start_date=2014-04-23&end_date=2014-04-23&detailed=true&api_key=t0TVs3DtDT2H8Oy2Zy8m2eVrNsAVKAexjcZXUckd",
    "prev" : "https://api.nasa.gov/neo/rest/v1/feed?start_date=2014-04-21&end_date=2014-04-21&detailed=true&api_key=t0TVs3DtDT2H8Oy2Zy8m2eVrNsAVKAexjcZXUckd",
    "self" : "https://api.nasa.gov/neo/rest/v1/feed?start_date=2014-04-22&end_date=2014-04-22&detailed=true&api_key=t0TVs3DtDT2H8Oy2Zy8m2eVrNsAVKAexjcZXUckd"
  },
  "element_count" : 8,
  "near_earth_objects" : {
    "2014-04-22" : [ {
      "links" : {
        "self" : "https://api.nasa.gov/neo/rest/v1/neo/3669065?api_key=t0TVs3DtDT2H8Oy2Zy8m2eVrNsAVKAexjcZXUckd"
      },
      "neo_reference_id" : "3669065",
      "name" : "(2014 HS4)",
      "nasa_jpl_url" : "http://ssd.jpl.nasa.gov/sbdb.cgi?sstr=3669065",
      "absolute_magnitude_h" : 26.1,
      "estimated_diameter" : {
        "kilometers" : {
          "estimated_diameter_min" : 0.0160160338,
          "estimated_diameter_max" : 0.0358129403
        },
        "meters" : {
          "estimated_diameter_min" : 16.0160337979,
          "estimated_diameter_max" : 35.8129403019
        },
        "miles" : {
          "estimated_diameter_min" : 0.0099518989,
          "estimated_diameter_max" : 0.0222531225
        },
        "feet" : {
          "estimated_diameter_min" : 52.5460443254,
          "estimated_diameter_max" : 117.4965270602
        }
      },
      "is_potentially_hazardous_asteroid" : false,
      "close_approach_data" : [ {
        "close_approach_date" : "2014-04-22",
        "epoch_date_close_approach" : 1398150000000,
        "relative_velocity" : {
          "kilometers_per_second" : "5.6510853117",
          "kilometers_per_hour" : "20343.9071220774",
          "miles_per_hour" : "12640.9127337152"
        },
        "miss_distance" : {
          "astronomical" : "0.0474675335",
          "lunar" : "18.4648704529",
          "kilometers" : "7101042",
          "miles" : "4412383"
        },
        "orbiting_body" : "Earth"
      } ],
      "orbital_data" : {
        "orbit_id" : "5",
        "orbit_determination_date" : "2017-04-06 08:41:28",
        "orbit_uncertainty" : "8",
        "minimum_orbit_intersection" : ".0463749",
        "jupiter_tisserand_invariant" : "3.986",
        "epoch_osculation" : "2456772.5",
        "eccentricity" : ".4104108624679835",
        "semi_major_axis" : "1.779653604085454",
        "inclination" : "4.932904252912801",
        "ascending_node_longitude" : "213.5924680780318",
        "orbital_period" : "867.1648077737323",
        "perihelion_distance" : "1.049264433538488",
        "perihelion_argument" : "350.8975151098732",
        "aphelion_distance" : "2.510042774632421",
        "perihelion_time" : "2456763.522798761209",
        "mean_anomaly" : "3.72684917214494",
        "mean_motion" : ".4151459985146608",
        "equinox" : "J2000"
      }
    }, {
      "links" : {
        "self" : "https://api.nasa.gov/neo/rest/v1/neo/3670143?api_key=t0TVs3DtDT2H8Oy2Zy8m2eVrNsAVKAexjcZXUckd"
      },
      "neo_reference_id" : "3670143",
      "name" : "(2014 HP178)",
      "nasa_jpl_url" : "http://ssd.jpl.nasa.gov/sbdb.cgi?sstr=3670143",
      "absolute_magnitude_h" : 21.6,
      "estimated_diameter" : {
        "kilometers" : {
          "estimated_diameter_min" : 0.1272198785,
          "estimated_diameter_max" : 0.2844722965
        },
        "meters" : {
          "estimated_diameter_min" : 127.2198785394,
          "estimated_diameter_max" : 284.4722965033
        },
        "miles" : {
          "estimated_diameter_min" : 0.0790507431,
          "estimated_diameter_max" : 0.1767628354
        },
        "feet" : {
          "estimated_diameter_min" : 417.3880663071,
          "estimated_diameter_max" : 933.3080892598
        }
      },
      "is_potentially_hazardous_asteroid" : false,
      "close_approach_data" : [ {
        "close_approach_date" : "2014-04-22",
        "epoch_date_close_approach" : 1398150000000,
        "relative_velocity" : {
          "kilometers_per_second" : "2.1642021378",
          "kilometers_per_hour" : "7791.1276959256",
          "miles_per_hour" : "4841.1037619489"
        },
        "miss_distance" : {
          "astronomical" : "0.3082176356",
          "lunar" : "119.8966674805",
          "kilometers" : "46108704",
          "miles" : "28650620"
        },
        "orbiting_body" : "Earth"
      } ],
      "orbital_data" : {
        "orbit_id" : "8",
        "orbit_determination_date" : "2017-04-06 08:41:14",
        "orbit_uncertainty" : "6",
        "minimum_orbit_intersection" : ".292801",
        "jupiter_tisserand_invariant" : "3.765",
        "epoch_osculation" : "2458000.5",
        "eccentricity" : ".3526610263015575",
        "semi_major_axis" : "1.99164289336482",
        "inclination" : "5.397395668479809",
        "ascending_node_longitude" : "79.82808000786136",
        "orbital_period" : "1026.63397686756",
        "perihelion_distance" : "1.289268066564579",
        "perihelion_argument" : "134.3622650862351",
        "aphelion_distance" : "2.694017720165061",
        "perihelion_time" : "2457804.457761602525",
        "mean_anomaly" : "68.74427246059821",
        "mean_motion" : ".3506605159303445",
        "equinox" : "J2000"
      }
    }, {
      "links" : {
        "self" : "https://api.nasa.gov/neo/rest/v1/neo/2388838?api_key=t0TVs3DtDT2H8Oy2Zy8m2eVrNsAVKAexjcZXUckd"
      },
      "neo_reference_id" : "2388838",
      "name" : "388838 (2008 EZ5)",
      "nasa_jpl_url" : "http://ssd.jpl.nasa.gov/sbdb.cgi?sstr=2388838",
      "absolute_magnitude_h" : 19.5,
      "estimated_diameter" : {
        "kilometers" : {
          "estimated_diameter_min" : 0.3346223745,
          "estimated_diameter_max" : 0.7482383761
        },
        "meters" : {
          "estimated_diameter_min" : 334.6223744549,
          "estimated_diameter_max" : 748.2383760735
        },
        "miles" : {
          "estimated_diameter_min" : 0.2079246394,
          "estimated_diameter_max" : 0.464933628
        },
        "feet" : {
          "estimated_diameter_min" : 1097.8424710066,
          "estimated_diameter_max" : 2454.8503937571
        }
      },
      "is_potentially_hazardous_asteroid" : false,
      "close_approach_data" : [ {
        "close_approach_date" : "2014-04-22",
        "epoch_date_close_approach" : 1398150000000,
        "relative_velocity" : {
          "kilometers_per_second" : "10.2237916108",
          "kilometers_per_hour" : "36805.649798731",
          "miles_per_hour" : "22869.5994541059"
        },
        "miss_distance" : {
          "astronomical" : "0.0986121518",
          "lunar" : "38.3601264954",
          "kilometers" : "14752168",
          "miles" : "9166572"
        },
        "orbiting_body" : "Earth"
      } ],
      "orbital_data" : {
        "orbit_id" : "80",
        "orbit_determination_date" : "2017-08-14 06:22:17",
        "orbit_uncertainty" : "0",
        "minimum_orbit_intersection" : ".0777108",
        "jupiter_tisserand_invariant" : "3.573",
        "epoch_osculation" : "2458000.5",
        "eccentricity" : ".5081557431195914",
        "semi_major_axis" : "2.087272037664258",
        "inclination" : "8.027397467848775",
        "ascending_node_longitude" : "15.2362864832908",
        "orbital_period" : "1101.455635994526",
        "perihelion_distance" : "1.026612764272233",
        "perihelion_argument" : "227.9267371128777",
        "aphelion_distance" : "3.147931311056283",
        "perihelion_time" : "2457895.753278267995",
        "mean_anomaly" : "34.23544134800663",
        "mean_motion" : ".3268402178313328",
        "equinox" : "J2000"
      }
    } ]
  }
}